[{"OBJECT_NAME":"YAOGAN-31 03B","OBJECT_ID":"2021-014C","EPOCH":"2026-03-10T00:24:01.951200","MEAN_MOTION":13.45442112,"ECCENTRICITY":0.01685902,"INCLINATION":63.4006,"RA_OF_ASC_NODE":93.5208,"ARG_OF_PERICENTER":0.5266,"MEAN_ANOMALY":359.5908,"EPHEMERIS_TYPE":0,"CLASSIFICATION_TYPE":"U","NORAD_CAT_ID":47693,"ELEMENT_SET_NO":999,"REV_AT_EPOCH":24733,"BSTAR":0.00044455044,"MEAN_MOTION_DOT":1.97e-6,"MEAN_MOTION_DDOT":0},{"OBJECT_NAME":"ONEWEB-0368","OBJECT_ID":"2021-090R","EPOCH":"2026-03-09T16:01:15.612384","MEAN_MOTION":13.20771385,"ECCENTRICITY":0.00010811,"INCLINATION":87.9161,"RA_OF_ASC_NODE":294.3317,"ARG_OF_PERICENTER":110.464,"MEAN_ANOMALY":249.661,"EPHEMERIS_TYPE":0,"CLASSIFICATION_TYPE":"U","NORAD_CAT_ID":49294,"ELEMENT_SET_NO":999,"REV_AT_EPOCH":21784,"BSTAR":-0.00057418285,"MEAN_MOTION_DOT":-2.2e-6,"MEAN_MOTION_DDOT":0}]
